COSMOS 2433 (720)       
1 32275U 07052A   26086.26484101 -.00000031  00000+0  00000+0 0  9994
2 32275  65.6220 318.6929 0001310 266.9959  93.0431  2.13103956143313
COSMOS 2432 (719)       
1 32276U 07052B   26086.56903220 -.00000031  00000+0  00000+0 0  9996
2 32276  65.6372 318.8082 0009988 334.8511 202.7099  2.13103077143348
COSMOS 2434 (721)       
1 32393U 07065A   26085.48499492 -.00000016  00000+0  00000+0 0  9994
2 32393  64.3174 194.7028 0003008  65.6290 306.3532  2.13101314142013
COSMOS 2436 (723)       
1 32395U 07065C   26085.30743119 -.00000013  00000+0  00000+0 0  9992
2 32395  64.3261 194.7801 0017336   4.3496   4.0638  2.13100142141968
COSMOS 2456 (730)       
1 36111U 09070A   26086.46425047  .00000041  00000+0  00000+0 0  9995
2 36111  64.9640  73.7582 0006530 309.8098 251.1026  2.13103406126686
COSMOS 2457 (733)       
1 36112U 09070B   26085.09286998  .00000040  00000+0  00000+0 0  9993
2 36112  64.9488  73.6506 0001624 196.4354 160.5699  2.13100904126652
COSMOS 2460 (732)       
1 36402U 10007C   26084.39211837 -.00000030  00000+0  00000+0 0  9999
2 36402  65.4675 317.3041 0002062  36.6538 143.8601  2.13106133124943
COSMOS 2476 (744)       
1 37867U 11064A   26081.32240285  .00000034  00000+0  00000+0 0  9991
2 37867  65.2205  75.8028 0025128 241.8014 242.7933  2.13103886111916
COSMOS 2477 (745)       
1 37868U 11064B   26086.55767882  .00000045  00000+0  00000+0 0  9991
2 37868  65.2306  75.7044 0022051 243.8013 117.7179  2.13102718112028
COSMOS 2475 (743)       
1 37869U 11064C   26085.96671419  .00000045  00000+0  00000+0 0  9996
2 37869  65.2369  75.7452 0028000 255.1844 328.4364  2.13101526112011
COSMOS 2485 (747)       
1 39155U 13019A   26086.25892666  .00000047  00000+0  00000+0 0  9992
2 39155  65.3743  76.3527 0025184 237.6542 122.1135  2.13102996100539
COSMOS 2492 (754)       
1 39620U 14012A   26085.27933052 -.00000029  00000+0  00000+0 0  9990
2 39620  65.3447 316.7556 0012642 328.9539  31.0243  2.13103147 93476
COSMOS 2500 (755)       
1 40001U 14032A   26084.98089928 -.00000029  00000+0  00000+0 0  9998
2 40001  65.2801 316.5197 0005102 192.2633 167.7767  2.13105937 91681
COSMOS 2501 (702K)      
1 40315U 14075A   26084.30325579  .00000001  00000+0  00000+0 0  9993
2 40315  63.6158 193.2737 0021182 207.3153 152.5805  2.13101287 88064
COSMOS 2514 (751)       
1 41330U 16008A   26086.16472384 -.00000026  00000+0  00000+0 0  9990
2 41330  65.0691 315.8231 0009012 203.6764 156.3352  2.13102618 78872
COSMOS 2522 (752)       
1 42939U 17055A   26083.18703733  .00000020  00000+0  00000+0 0  9996
2 42939  64.0784 194.7748 0007868 230.2375 129.7005  2.13101803 66161
COSMOS 2527 (756)       
1 43508U 18053A   26085.49462227  .00000047  00000+0  00000+0 0  9993
2 43508  65.5324  76.6642 0009330 247.5935 112.3193  2.13101971 60515
COSMOS 2529 (757)       
1 43687U 18086A   26084.18377329  .00000005  00000+0  00000+0 0  9994
2 43687  64.2947 195.4281 0008714 253.5032 106.4055  2.13101936 57494
COSMOS 2534 (758)       
1 44299U 19030A   26085.95215376 -.00000022  00000+0  00000+0 0  9993
2 44299  64.3676 195.3834 0010548 278.4108 132.6324  2.13102186 53174
COSMOS 2544 (759)       
1 44850U 19088A   26082.62369789  .00000036  00000+0  00000+0 0  9992
2 44850  65.5174  76.5851 0015791 260.6166  99.2133  2.13102020 48890
COSMOS 2545 (760)       
1 45358U 20018A   26085.16554035 -.00000028  00000+0  00000+0 0  9995
2 45358  64.4042 315.3386 0007474 246.9709 113.0018  2.13102438 46890
COSMOS 2547 (705K)      
1 46805U 20075A   26084.41574007  .00000002  00000+0  00000+0 0  9995
2 46805  64.5987 195.2687 0007325 232.3835 127.5541  2.13100272 42127
COSMOS 2557 (706K)      
1 52984U 22075A   26086.45773369 -.00000031  00000+0  00000+0 0  9993
2 52984  64.3453 317.3669 0010932 283.7882  76.1434  2.13101746 28979
COSMOS 2559 (707K)      
1 54031U 22130A   26086.27716517 -.00000031  00000+0  00000+0 0  9992
2 54031  64.3180 317.4582 0010825 178.2697 181.7868  2.13101261 26940
COSMOS 2564 (761)       
1 54377U 22161A   26085.18208958 -.00000011  00000+0  00000+0 0  9991
2 54377  64.7402 195.4649 0010068 214.2315 145.7050  2.13101859 25865
COSMOS 2569 (703K)      
1 57517U 23114A   26086.13335799  .00000045  00000+0  00000+0 0  9995
2 57517  65.2565  75.3860 0012917 293.3376  66.5369  2.13103798 20515
COSMOS 2584 (704K)      
1 63130U 25042A   26086.48950403  .00000045  00000+0  00000+0 0  9998
2 63130  65.0387  75.5779 0007440 238.7534 121.1843  2.13103440  8300
COSMOS 2596 (708K)      
1 65590U 25206B   26086.61511387 -.00000031  00000+0  00000+0 0  9997
2 65590  64.6808 317.8263 0012287 316.8795 256.7022  2.13100192  4173
